[Satellite]
VERSION=1.1
NAME=DUMMY MASS 2 [-]
NICKNAME=DUMMY MASS 2 [-]
TLE1=1 24926U 97048B   18020.88536187  .00000079  00000-0  59207-5 0  9992
TLE2=2 24926  86.3372 304.1787 0008269  18.0035 342.1480 14.84929858103493
